<!DOCTYPE HTML PUBLIC "-//W3C//DTD HTML 4.01 Transitional//EN" "http://www.w3.org/TR/html4/loose.dtd">
<html>
<head>
<title>Abruf von SA-UNGARN</title>
</head>
<body bgcolor="#ffffff" text="#303030" link="#2020DF" vlink="#30307F">
<p class="flreq">
       D A T E N B A N K    -   W I E N         27.03.2017 18:16:32 UTC

                              METAR UNGARN

       PAPA    ;/LHPA
SALHPA 271745Z 00000KT CAVOK 10/M03 Q1025 NOSIG RMK BLU=

       BUDAPEST/FERIHEGY_INTL    BUD/LHBP
SALHBP 271800Z 28004KT 250V310 CAVOK 09/M02 Q1024 NOSIG=

       DEBRECEN    DEB/LHDC
SALHDC 271745Z 26005KT CAVOK 10/M04 Q1024 NOSIG=

       SZEGED    QZD/LHUD
SALHUD 271745Z 34004KT CAVOK 10/M03 Q1025=

       KECSKEMET    ;/LHKE
SALHKE 271745Z 28004KT CAVOK 08/M04 Q1023 NOSIG RMK BLU=

       SZOLNOK    ;/LHSN
SALHSN 271745Z 25002KT CAVOK 10/M03 Q1024 NOSIG RMK BLU=

       PECS/POGANY    QPJ/LHPP
SALHPP 271645Z 06006KT CAVOK 10/M04 Q1025=

       GYOR    QGY/LHPR
SALHPR 271745Z AUTO VRB02KT CAVOK 11/M03 Q1024 RMK BLU=

       SARMELLEK    SOB/LHSM
SALHSM 271745Z 20002KT CAVOK 09/M03 Q1025=

       BEKESCSABA    ;/LHBC
SALHBC 271745Z 01002KT CAVOK 09/M04 Q1024=

</p>
</body>
</html>
